GLOBALSTAR M057         
1 25943U 99058A   24329.68863943 -.00000074  00000+0  17010-3 0  9994
2 25943  51.9968 208.5612 0002291 346.3067  13.7720 12.24803199141870
GLOBALSTAR M059         
1 25944U 99058B   24329.69740993 -.00000015  00000+0  87971-3 0  9993
2 25944  52.0044  40.3785 0000508 154.6454 342.6205 11.99970701549497
GLOBALSTAR M031         
1 25946U 99058D   24330.15092104 -.00000101  00000+0 -10324-3 0  9997
2 25946  51.9977 310.8964 0001495 110.2044 304.9312 12.16023317139964
GLOBALSTAR M039         
1 25961U 99062A   24329.95805343 -.00000053  00000+0  28206-3 0  9995
2 25961  51.9817 170.7521 0001526 248.2913 111.7791 12.62311844154450
GLOBALSTAR M034         
1 25962U 99062B   24329.88985720 -.00000069  00000+0  19072-3 0  9994
2 25962  51.9839 182.4408 0014635  19.9388 102.2058 11.79436151114287
GLOBALSTAR M029         
1 25963U 99062C   24329.91874777 -.00000059  00000+0  33995-3 0  9997
2 25963  51.9811 287.9933 0003044  69.8040 324.2572 11.99887543144606
GLOBALSTAR M061         
1 25964U 99062D   24329.60025773 -.00000057  00000+0  38266-3 0  9992
2 25964  51.9823   4.5134 0005821 300.2067 181.9897 11.76768086 97095
